[{"OBJECT_NAME":"TEVEL2-6","OBJECT_ID":"2025-052F","EPOCH":"2026-03-09T15:35:24.554400","MEAN_MOTION":15.30760889,"ECCENTRICITY":0.0004769,"INCLINATION":97.4016,"RA_OF_ASC_NODE":325.0381,"ARG_OF_PERICENTER":95.6604,"MEAN_ANOMALY":264.5181,"EPHEMERIS_TYPE":0,"CLASSIFICATION_TYPE":"U","NORAD_CAT_ID":63215,"ELEMENT_SET_NO":999,"REV_AT_EPOCH":5486,"BSTAR":0.00070909,"MEAN_MOTION_DOT":0.00021046,"MEAN_MOTION_DDOT":0},{"OBJECT_NAME":"STARLINK-36075","OBJECT_ID":"2025-283AD","EPOCH":"2026-03-09T06:18:34.925472","MEAN_MOTION":15.30145175,"ECCENTRICITY":0.00011567,"INCLINATION":53.1623,"RA_OF_ASC_NODE":26.5141,"ARG_OF_PERICENTER":128.6218,"MEAN_ANOMALY":231.4886,"EPHEMERIS_TYPE":0,"CLASSIFICATION_TYPE":"U","NORAD_CAT_ID":66905,"ELEMENT_SET_NO":999,"REV_AT_EPOCH":1577,"BSTAR":0.00033324812,"MEAN_MOTION_DOT":9.507e-5,"MEAN_MOTION_DDOT":0}]
